0 THOR ABLESTAR DEB
1 01942U 61015HS  13282.34448698 -.00000673  00000-0 -12839-2 0   636
2 01942 067.2603 338.8285 0359372 199.1912 249.2537 13.09977637509794
0 THOR ABLESTAR DEB
1 01942U 61015HS  13284.16458411 -.00000770  00000-0 -14876-2 0   644
2 01942 067.2599 335.0273 0359169 197.9788 192.6330 13.09976484510035
0 THOR ABLESTAR DEB
1 01942U 61015HS  13285.47948532 -.00000854  00000-0 -16655-2 0   658
2 01942 067.2595 332.2809 0359022 197.0913 273.5700 13.09974724510208
0 THOR ABLESTAR DEB
1 01942U 61015HS  13286.77922576 -.00000873  00000-0 -17057-2 0   661
2 01942 067.2590 329.5664 0358858 196.2208 282.9966 13.09973283510370
0 THOR ABLESTAR DEB
1 01942U 61015HS  13288.05475230 -.00000916  00000-0 -17965-2 0   671
2 01942 067.2587 326.9029 0358743 195.3547 178.2404 13.09971433510549
0 THOR ABLESTAR DEB
1 01942U 61015HS  13289.53528873 -.00000938  00000-0 -18427-2 0   686
2 01942 067.2581 323.8108 0358554 194.3503 320.2765 13.09968910510734
0 THOR ABLESTAR DEB
1 01942U 61015HS  13290.57120172 -.00000743  00000-0  00000+0 0   703
2 01942 067.2612 321.6525 0359484 193.5557 165.6072 13.09966902510877
0 THOR ABLESTAR DEB
1 01942U 61015HS  13290.74767514 -.00000932  00000-0 -18317-2 0   691
2 01942 067.2577 321.2787 0358381 193.5290 277.7406 13.09967508510893
0 THOR ABLESTAR DEB
1 01942U 61015HS  13292.02518294 -.00000959  00000-0 -18887-2 0   706
2 01942 067.2572 318.6103 0358224 192.6551 182.3094 13.09965457511061
0 THOR ABLESTAR DEB
1 01942U 61015HS  13293.18122145 -.00000926  00000-0 -18198-2 0   710
2 01942 067.2568 316.1955 0358062 191.8621 234.0388 13.09963894511214
0 THOR ABLESTAR DEB
1 01942U 61015HS  13294.49149855 -.00000931  00000-0 -18295-2 0   727
2 01942 067.2564 313.4585 0357927 190.9585 293.1338 13.09961327511385
0 THOR ABLESTAR DEB
1 01942U 61015HS  13295.70942198 -.00000906  00000-0 -17774-2 0   737
2 01942 067.2561 310.9146 0357829 190.1163 276.6943 13.09959324511542
